{
  "norad_id": 59095,
  "name": "STARLINK-31295",
  "history": [
    {
      "epoch": "2026-03-28T08:04:55.886880Z",
      "apogee_km": 484.04839477855967,
      "perigee_km": 482.0328552394367,
      "latitude_deg": 1.2249149850174853e-05,
      "longitude_deg": -101.62840842505473,
      "height_km": 482.9908565640666,
      "semi_major_axis_km": 6861.177625008998,
      "eccentricity": 0.00014688,
      "inclination_deg": 42.9992,
      "raan_deg": 205.3631,
      "arg_perigee_deg": 260.0803,
      "mean_anomaly_deg": 99.9883,
      "mean_motion_rev_day": 15.27582829
    },
    {
      "epoch": "2026-03-30T18:08:45.174624Z",
      "apogee_km": 483.41787719775857,
      "perigee_km": 482.792269145526,
      "latitude_deg": 2.1418637774833658e-05,
      "longitude_deg": 91.3716458191209,
      "height_km": 482.91683366541,
      "semi_major_axis_km": 6861.242073171642,
      "eccentricity": 4.559e-05,
      "inclination_deg": 42.9992,
      "raan_deg": 191.7031,
      "arg_perigee_deg": 263.3914,
      "mean_anomaly_deg": 96.6886,
      "mean_motion_rev_day": 15.27561306
    }
  ]
}